*******************************************************************************
Ephemeris / WWW_USER Mon Mar 24 08:41:38 2025 Pasadena, USA      / Horizons    
*******************************************************************************
Target body name: (2019 AK3)                      {source: JPL#8}
Center body name: Earth (399)                     {source: DE441}
Center-site name: Mauna Kea
*******************************************************************************
Start time      : A.D. 2018-Oct-15 04:08:00.0000 UT      
Stop  time      : A.D. 2018-Oct-15 16:07:00.0000 UT      
Step-size       : 1 minutes
*******************************************************************************
Target pole/equ : undefined
Target radii    : undefined                                                    
Center geodetic : 204.5278, 19.8260847, 4.21024   {E-lon(deg),Lat(deg),Alt(km)}
Center cylindric: 204.5278, 6006.35451, 2151.0229 {E-lon(deg),Dxy(km),Dz(km)}
Center pole/equ : ITRF93                          {East-longitude positive}
Center radii    : 6378.137, 6378.137, 6356.752 km {Equator_a, b, pole_c}       
Target primary  : Sun
Vis. interferer : MOON (R_eq= 1737.400) km        {source: DE441}
Rel. light bend : Sun                             {source: DE441}
Rel. lght bnd GM: 1.3271E+11 km^3/s^2                                          
Small-body perts: Yes                             {source: SB441-N16}
Atmos refraction: NO (AIRLESS)
RA format       : HMS
Time format     : CAL 
Calendar mode   : Mixed Julian/Gregorian
RTS-only print  : NO       
EOP file        : eop.250321.p250617                                           
EOP coverage    : DATA-BASED 1962-JAN-20 TO 2025-MAR-21. PREDICTS-> 2025-JUN-16
Units conversion: 1 au= 149597870.700 km, c= 299792.458 km/s, 1 day= 86400.0 s 
Table cut-offs 1: Elevation (-90.0deg=NO ),Airmass (>38.000=NO), Daylight (YES)
Table cut-offs 2: Solar elongation (  0.0,180.0=NO ),Local Hour Angle( 0.0=NO )
Table cut-offs 3: RA/DEC angular rate (     0.0=NO )                           
*******************************************************************************
Initial IAU76/J2000 heliocentric ecliptic osculating elements (au, days, deg.):
  EPOCH=  2458490.5 ! 2019-Jan-07.00 (TDB)         Residual RMS= .10027        
   EC= .4460441123274964   QR= .8736665173848456   TP= 2458534.5649506859      
   OM= 293.7231565418804   W=  230.0622942544228   IN= 4.899135051513321       
  Equivalent ICRF heliocentric cartesian coordinates (au, au/d):
   X=-2.869453413579581E-01  Y= 8.924440573967301E-01  Z= 3.991223626471717E-01
  VX=-1.652766681412374E-02 VY=-9.271695064707189E-03 VZ=-5.840432387800149E-03
Asteroid physical parameters (km, seconds, rotational period in hours):        
   GM= n.a.                RAD= n.a.               ROTPER= n.a.                
   H= 27.                  G= .150                 B-V= n.a.                   
                           ALBEDO= n.a.            STYP= n.a.                  
*******************************************************************************
 Date__(UT)__HR:MN     R.A._________(ICRF)_________DEC
******************************************************
$$SOE
 2018-Oct-15 08:14  m  05 21 46.414500 +31 47 20.06330
 2018-Oct-15 08:15  m  05 21 46.479768 +31 47 20.32896
 2018-Oct-15 08:16  m  05 21 46.545021 +31 47 20.59461
 2018-Oct-15 08:17  m  05 21 46.610257 +31 47 20.86027
 2018-Oct-15 08:18  m  05 21 46.675479 +31 47 21.12592
 2018-Oct-15 08:19  m  05 21 46.740685 +31 47 21.39156
 2018-Oct-15 08:20  m  05 21 46.805875 +31 47 21.65721
 2018-Oct-15 08:21  m  05 21 46.871050 +31 47 21.92284
 2018-Oct-15 08:22  m  05 21 46.936209 +31 47 22.18848
 2018-Oct-15 08:23  m  05 21 47.001353 +31 47 22.45410
 2018-Oct-15 08:24  m  05 21 47.066481 +31 47 22.71972
 2018-Oct-15 08:25  m  05 21 47.131594 +31 47 22.98534
 2018-Oct-15 08:26  m  05 21 47.196691 +31 47 23.25095
 2018-Oct-15 08:27  m  05 21 47.261773 +31 47 23.51654
 2018-Oct-15 08:28  m  05 21 47.326839 +31 47 23.78214
 2018-Oct-15 08:29  m  05 21 47.391890 +31 47 24.04772
 2018-Oct-15 08:30  m  05 21 47.456925 +31 47 24.31330
 2018-Oct-15 08:31  m  05 21 47.521945 +31 47 24.57886
 2018-Oct-15 08:32  m  05 21 47.586949 +31 47 24.84442
 2018-Oct-15 08:33  m  05 21 47.651938 +31 47 25.10996
 2018-Oct-15 08:34  m  05 21 47.716912 +31 47 25.37550
 2018-Oct-15 08:35  m  05 21 47.781869 +31 47 25.64102
 2018-Oct-15 08:36  m  05 21 47.846812 +31 47 25.90653
 2018-Oct-15 08:37  m  05 21 47.911739 +31 47 26.17204
 2018-Oct-15 08:38  m  05 21 47.976650 +31 47 26.43752
 2018-Oct-15 08:39  m  05 21 48.041546 +31 47 26.70300
 2018-Oct-15 08:40  m  05 21 48.106427 +31 47 26.96846
 2018-Oct-15 08:41  m  05 21 48.171292 +31 47 27.23391
 2018-Oct-15 08:42  m  05 21 48.236142 +31 47 27.49935
 2018-Oct-15 08:43  m  05 21 48.300976 +31 47 27.76477
 2018-Oct-15 08:44  m  05 21 48.365795 +31 47 28.03017
 2018-Oct-15 08:45  m  05 21 48.430599 +31 47 28.29556
 2018-Oct-15 08:46  m  05 21 48.495387 +31 47 28.56094
 2018-Oct-15 08:47  m  05 21 48.560160 +31 47 28.82629
 2018-Oct-15 08:48  m  05 21 48.624918 +31 47 29.09163
 2018-Oct-15 08:49  m  05 21 48.689660 +31 47 29.35696
 2018-Oct-15 08:50  m  05 21 48.754387 +31 47 29.62226
 2018-Oct-15 08:51  m  05 21 48.819098 +31 47 29.88755
 2018-Oct-15 08:52  m  05 21 48.883795 +31 47 30.15282
 2018-Oct-15 08:53  m  05 21 48.948476 +31 47 30.41807
 2018-Oct-15 08:54     05 21 49.013141 +31 47 30.68330
 2018-Oct-15 08:55     05 21 49.077792 +31 47 30.94851
 2018-Oct-15 08:56     05 21 49.142427 +31 47 31.21370
 2018-Oct-15 08:57     05 21 49.207047 +31 47 31.47887
 2018-Oct-15 08:58     05 21 49.271651 +31 47 31.74402
 2018-Oct-15 08:59     05 21 49.336241 +31 47 32.00915
 2018-Oct-15 09:00     05 21 49.400815 +31 47 32.27425
 2018-Oct-15 09:01     05 21 49.465374 +31 47 32.53933
 2018-Oct-15 09:02     05 21 49.529918 +31 47 32.80439
 2018-Oct-15 09:03     05 21 49.594446 +31 47 33.06943
 2018-Oct-15 09:04     05 21 49.658960 +31 47 33.33444
 2018-Oct-15 09:05     05 21 49.723458 +31 47 33.59943
 2018-Oct-15 09:06     05 21 49.787942 +31 47 33.86439
 2018-Oct-15 09:07     05 21 49.852410 +31 47 34.12933
 2018-Oct-15 09:08     05 21 49.916863 +31 47 34.39424
 2018-Oct-15 09:09     05 21 49.981301 +31 47 34.65913
 2018-Oct-15 09:10     05 21 50.045724 +31 47 34.92399
 2018-Oct-15 09:11     05 21 50.110132 +31 47 35.18882
 2018-Oct-15 09:12     05 21 50.174525 +31 47 35.45363
 2018-Oct-15 09:13     05 21 50.238902 +31 47 35.71841
 2018-Oct-15 09:14     05 21 50.303265 +31 47 35.98316
 2018-Oct-15 09:15     05 21 50.367613 +31 47 36.24788
 2018-Oct-15 09:16     05 21 50.431946 +31 47 36.51257
 2018-Oct-15 09:17     05 21 50.496264 +31 47 36.77723
 2018-Oct-15 09:18     05 21 50.560567 +31 47 37.04187
 2018-Oct-15 09:19     05 21 50.624856 +31 47 37.30647
 2018-Oct-15 09:20     05 21 50.689129 +31 47 37.57104
 2018-Oct-15 09:21     05 21 50.753387 +31 47 37.83558
 2018-Oct-15 09:22     05 21 50.817631 +31 47 38.10009
 2018-Oct-15 09:23     05 21 50.881860 +31 47 38.36457
 2018-Oct-15 09:24     05 21 50.946074 +31 47 38.62901
 2018-Oct-15 09:25     05 21 51.010273 +31 47 38.89342
 2018-Oct-15 09:26     05 21 51.074458 +31 47 39.15780
 2018-Oct-15 09:27     05 21 51.138628 +31 47 39.42214
 2018-Oct-15 09:28     05 21 51.202783 +31 47 39.68645
 2018-Oct-15 09:29     05 21 51.266923 +31 47 39.95073
 2018-Oct-15 09:30     05 21 51.331049 +31 47 40.21497
 2018-Oct-15 09:31     05 21 51.395160 +31 47 40.47918
 2018-Oct-15 09:32     05 21 51.459256 +31 47 40.74335
 2018-Oct-15 09:33     05 21 51.523338 +31 47 41.00748
 2018-Oct-15 09:34     05 21 51.587405 +31 47 41.27157
 2018-Oct-15 09:35     05 21 51.651458 +31 47 41.53563
 2018-Oct-15 09:36     05 21 51.715496 +31 47 41.79966
 2018-Oct-15 09:37     05 21 51.779520 +31 47 42.06364
 2018-Oct-15 09:38     05 21 51.843529 +31 47 42.32758
 2018-Oct-15 09:39     05 21 51.907524 +31 47 42.59149
 2018-Oct-15 09:40     05 21 51.971504 +31 47 42.85536
 2018-Oct-15 09:41     05 21 52.035470 +31 47 43.11919
 2018-Oct-15 09:42     05 21 52.099422 +31 47 43.38297
 2018-Oct-15 09:43     05 21 52.163359 +31 47 43.64672
 2018-Oct-15 09:44     05 21 52.227282 +31 47 43.91043
 2018-Oct-15 09:45     05 21 52.291190 +31 47 44.17409
 2018-Oct-15 09:46     05 21 52.355085 +31 47 44.43771
 2018-Oct-15 09:47     05 21 52.418965 +31 47 44.70130
 2018-Oct-15 09:48     05 21 52.482831 +31 47 44.96483
 2018-Oct-15 09:49     05 21 52.546682 +31 47 45.22833
 2018-Oct-15 09:50     05 21 52.610520 +31 47 45.49178
 2018-Oct-15 09:51     05 21 52.674343 +31 47 45.75519
 2018-Oct-15 09:52     05 21 52.738152 +31 47 46.01855
 2018-Oct-15 09:53     05 21 52.801947 +31 47 46.28187
 2018-Oct-15 09:54     05 21 52.865728 +31 47 46.54515
 2018-Oct-15 09:55     05 21 52.929496 +31 47 46.80838
 2018-Oct-15 09:56     05 21 52.993249 +31 47 47.07156
 2018-Oct-15 09:57     05 21 53.056988 +31 47 47.33470
 2018-Oct-15 09:58     05 21 53.120713 +31 47 47.59779
 2018-Oct-15 09:59     05 21 53.184424 +31 47 47.86083
 2018-Oct-15 10:00     05 21 53.248121 +31 47 48.12383
 2018-Oct-15 10:01     05 21 53.311805 +31 47 48.38678
 2018-Oct-15 10:02     05 21 53.375475 +31 47 48.64968
 2018-Oct-15 10:03     05 21 53.439131 +31 47 48.91253
 2018-Oct-15 10:04     05 21 53.502773 +31 47 49.17534
 2018-Oct-15 10:05     05 21 53.566401 +31 47 49.43809
 2018-Oct-15 10:06     05 21 53.630016 +31 47 49.70079
 2018-Oct-15 10:07     05 21 53.693617 +31 47 49.96345
 2018-Oct-15 10:08     05 21 53.757204 +31 47 50.22605
 2018-Oct-15 10:09     05 21 53.820778 +31 47 50.48860
 2018-Oct-15 10:10     05 21 53.884339 +31 47 50.75110
 2018-Oct-15 10:11     05 21 53.947885 +31 47 51.01355
 2018-Oct-15 10:12     05 21 54.011419 +31 47 51.27595
 2018-Oct-15 10:13     05 21 54.074939 +31 47 51.53829
 2018-Oct-15 10:14     05 21 54.138445 +31 47 51.80059
 2018-Oct-15 10:15     05 21 54.201938 +31 47 52.06282
 2018-Oct-15 10:16     05 21 54.265418 +31 47 52.32501
